STARLINK-30794          
1 58218U 23170N   23325.16667824 -.01639881  00000+0 -19026-1 0  9998
2 58218  43.0002  84.3086 0001749 269.8228 161.1488 15.64117206  3939
STARLINK-30835          
1 58219U 23170P   23325.16667824 -.01638187  00000+0 -19008-1 0  9997
2 58219  43.0004  84.3071 0001511 269.5027 162.0803 15.64114163  3814
STARLINK-30792          
1 58220U 23170Q   23325.16667824 -.01638043  00000+0 -19006-1 0  9998
2 58220  42.9999  84.3053 0001631 268.5200 163.6727 15.64113018  3935
STARLINK-30836          
1 58221U 23170R   23325.16667824 -.01636245  00000+0 -18986-1 0  9997
2 58221  43.0000  84.3037 0001469 279.9710 152.8333 15.64109971  3817
STARLINK-30855          
1 58222U 23170S   23325.16667824 -.01637661  00000+0 -19005-1 0  9994
2 58222  43.0003  84.3022 0001464 278.6313 154.7829 15.64109527  3813
STARLINK-30840          
1 58223U 23170T   23325.16667824 -.01637860  00000+0 -19006-1 0  9997
2 58223  43.0002  84.3009 0001686 266.6742 167.3487 15.64109277  3819
STARLINK-30875          
1 58224U 23170U   23325.16667824  .00113051  00000+0  10436-2 0  9995
2 58224  43.0002  84.2922 0001745 269.5331 167.8255 15.66488069  3870
STARLINK-30872          
1 58225U 23170V   23325.16667824 -.01644667  00000+0 -19095-1 0  9990
2 58225  43.0002  84.2977 0001710 265.0571 170.1858 15.64109679  2746
